RADUGA 1 [-]            
1 08513U 75123A   22325.85401617  .00000018  00000+0  00000+0 0  9998
2 08513   6.1568 286.4152 0007570 223.8711 283.5200  1.00283885181742
RADUGA 2 [-]            
1 09416U 76092A   22325.85818081 -.00000149  00000+0  00000+0 0  9990
2 09416   6.8210 288.4184 0027210 359.7797 164.3723  1.00291544116272
RADUGA 3 [-]            
1 10159U 77071A   22325.93799556 -.00000132  00000+0  00000+0 0  9990
2 10159   7.4376 291.0425 0009303 242.8979 307.8510  1.00189314163982
RADUGA 4 [-]            
1 10987U 78073A   22325.56430514  .00000127  00000+0  00000+0 0  9990
2 10987   8.0672 294.5985 0008429 356.7907  20.7027  1.00324564106530
RADUGA 5 [-]            
1 11343U 79035A   22325.85828836 -.00000131  00000+0  00000+0 0  9992
2 11343   8.5275 297.3841 0006316 178.0335 335.5120  1.00251679116286
RADUGA 6 [-]            
1 11708U 80016A   22326.00148152 -.00000165  00000+0  00000+0 0  9999
2 11708   8.8909 300.4872 0003066 213.0620 350.3893  1.00342469109084
RADUGA 7 [-]            
1 12003U 80081A   22325.76495888 -.00000180  00000+0  00000+0 0  9990
2 12003   9.0776 302.4583 0010302 266.9318 101.6689  1.00273742110248
RADUGA 8 [-]            
1 12351U 81027A   22325.83591082 -.00000302  00000+0  00000+0 0  9994
2 12351   9.4092 303.0367 0082381 232.3072 319.3820  1.00367519109469
RADUGA 9 [-]            
1 12618U 81069A   22325.85859575 -.00000121  00000+0  00000+0 0  9991
2 12618   9.6336 306.0360 0003477 163.6420 337.2381  1.00356692 34273
RADUGA 10 [-]           
1 12897U 81102A   22326.00209168 -.00000182  00000+0  00000+0 0  9990
2 12897   9.7196 307.0233 0005647 187.6662  12.5094  1.00271643104333
RADUGA 11 [-]           
1 13669U 82113A   22325.70263594 -.00000107  00000+0  00000+0 0  9997
2 13669  11.7882 320.8618 0038619 256.8219 118.4509  0.97709261108808
RADUGA 12 [-]           
1 13974U 83028A   22325.85738130 -.00000059  00000+0  00000+0 0  9997
2 13974  10.8817 316.8571 0001526 116.6176   7.2388  1.00293747156311
RADUGA 13 [-]           
1 14307U 83088A   22325.47001878 -.00000016  00000+0  00000+0 0  9997
2 14307  12.0418 322.4022 0014748  42.2818 132.3830  0.98172873106144
RADUGA 14 [-]           
1 14725U 84016A   22325.82633152 -.00000178  00000+0  00000+0 0  9997
2 14725  11.0968 320.6521 0004658 148.8826 333.0553  1.00255958105031
RADUGA 15 [-]           
1 15057U 84063A   22325.83591082 -.00000341  00000+0  00000+0 0  9996
2 15057  11.2210 321.6388 0005553 165.6332   3.9366  1.00268979128035
RADUGA 16 [-]           
1 15946U 85070A   22325.73750192  .00000125  00000+0  00000+0 0  9999
2 15946  11.6964 326.3265 0002247 178.8290  18.7279  1.00319913109158
RADUGA 17 [-]           
1 16250U 85107A   22325.60361654 -.00000013  00000+0  00000+0 0  9993
2 16250  11.8227 327.7297 0014057 188.3333   7.4799  1.00128250138614
RADUGA 18 [-]           
1 16497U 86007A   22325.71354426 -.00000156  00000+0  00000+0 0  9995
2 16497  12.6366 330.4496 0075552 168.3705 295.0486  0.98812741132983
RADUGA 19 [-]           
1 17046U 86082A   22325.90525142 -.00000178  00000+0  00000+0 0  9999
2 17046  13.0764 334.3969 0013359 154.6989 217.2502  0.98461381130127
RADUGA 20 [-]           
1 17611U 87028A   22325.53652881 -.00000073  00000+0  00000+0 0  9992
2 17611  15.0996 337.9070 0030558 141.8591  42.7951  0.95960851125804
RADUGA 21 [-]           
1 18631U 87100A   22325.66933892  .00000108  00000+0  00000+0 0  9992
2 18631  13.1697 335.2043 0003564 140.3335  41.0560  1.00325557128011
RADUGA 22 [-]           
1 19596U 88095A   22326.00653708 -.00000331  00000+0  00000+0 0  9990
2 19596  13.1653 339.5270 0007653 146.0908  45.2310  1.00183304108632
RADUGA 23 [-]           
1 19928U 89030A   22326.14107309  .00000000  00000+0  00000+0 0  9997
2 19928  13.3201 341.3483 0022021 167.7497  25.5329  1.00361164121771
RADUGA-1 1 [-]          
1 20083U 89048A   22325.48370465 -.00000109  00000+0  00000+0 0  9992
2 20083  14.0831 344.4308 0022520 118.9934  63.3553  0.98708247118408
RADUGA 24 [-]           
1 20367U 89098A   22326.13837097  .00000109  00000+0  00000+0 0  9993
2 20367  13.9024 343.5944 0002215 152.6434  23.5413  1.00238912119966
RADUGA 25 [-]           
1 20499U 90016A   22326.07141921 -.00000150  00000+0  00000+0 0  9995
2 20499  13.6735 344.2633 0005458 152.3375 216.1462  1.00166746119884
RADUGA 26 [-]           
1 21016U 90112A   22326.07269528 -.00000147  00000+0  00000+0 0  9998
2 21016  13.9995 347.5165 0007129  99.2101  79.8503  1.00321371117177
RADUGA-1 2 [-]          
1 21038U 90116A   22326.13915545  .00000081  00000+0  00000+0 0  9996
2 21038  14.0381 347.5868 0008547 107.5685  68.8692  1.00302286116841
RADUGA 27 [-]           
1 21132U 91014A   22325.70333326  .00000129  00000+0  00000+0 0  9995
2 21132  14.5481 347.1045 0003391 112.3503 239.8832  1.00316272116239
RADUGA 28 [-]           
1 21821U 91087A   22326.07173646 -.00000070  00000+0  00000+0 0  9994
2 21821  14.3257 350.8570 0007555 133.3369  37.0334  1.00182032113288
RADUGA 29 [-]           
1 22557U 93013A   22326.14081160  .00000007  00000+0  00000+0 0  9998
2 22557  14.5484 355.0292 0007253 119.3042  58.4982  1.00380819108625
RADUGA 30 [-]           
1 22836U 93062A   22325.82101311 -.00000062  00000+0  00000+0 0  9999
2 22836  14.5958 357.0116 0000944 347.5004  83.3604  1.00261520 32936
RADUGA-1 3 [-]          
1 22981U 94008A   22325.82940513 -.00000185  00000+0  00000+0 0  9992
2 22981  14.6776 358.1593 0003740 119.8120 327.1430  1.00219865105418
RADUGA 31 [-]           
1 23010U 94012A   22325.62410428 -.00000132  00000+0  00000+0 0  9998
2 23010  14.6478 358.1588 0005559 102.7936 261.4820  1.00340019105285
RADUGA 32 [-]           
1 23448U 94087A   22325.85960987 -.00000072  00000+0  00000+0 0  9993
2 23448  14.6402   0.8755 0005493 201.9835 240.0106  1.00262446119812
RADUGA-1 4 [-]          
1 25642U 99010A   22325.70856316  .00000079  00000+0  00000+0 0  9992
2 25642  15.2523  12.4215 0002600 233.4585 121.8096  1.00337995 86875
RADUGA-1 5 [-]          
1 26477U 00049A   22325.78003841  .00000093  00000+0  00000+0 0  9994
2 26477  13.2186  17.3824 0004870  73.1066 302.0999  1.00314797 81357
RADUGA-1 6 [-]          
1 26936U 01045A   22326.09424410 -.00000094  00000+0  00000+0 0  9997
2 26936  13.4095  23.7260 0016725 167.7117  17.2186  0.97744435 75843
RADUGA-1 7 [-]          
1 28194U 04010A   22325.85003375 -.00000340  00000+0  00000+0 0  9990
2 28194  12.1506  30.5335 0002469 178.8433 267.9837  1.00197312 68353
RADUGA-1M 1 [-]         
1 32373U 07058A   22325.78108439  .00000129  00000+0  00000+0 0  9992
2 32373   7.2436  62.9440 0000984  33.0028 301.8093  0.99393427 39433
RADUGA-1 8 [-]          
1 34264U 09010A   22326.46775687  .00000126  00000+0  00000+0 0  9991
2 34264   9.5364  52.8904 0013400   5.1490  20.7893  0.99824007 50163
RADUGA-1M 2 [+]         
1 36358U 10002A   22326.16854851 -.00000160  00000+0  00000+0 0  9997
2 36358   0.2421 100.5470 0003198 203.6621 262.6727  1.00270823 46942
RADUGA-1M 3 [+]         
1 39375U 13062A   22325.92033095  .00000179  00000+0  00000+0 0  9999
2 39375   2.6313  87.9383 0001852 121.2667 218.0173  1.00271985 33059
